start=new Date('2023-07-03T00:00:00.000Z').valueOf();
sats=[{"MEAN_MOTION_DOT":"-0.00000197","ARG_OF_PERICENTER":"80.8379","BSTAR":"0.00000562480000","ECCENTRICITY":"0.00006750","FILE":"3947722","CENTER_NAME":"EARTH","EPOCH":"2023-07-02T11:26:57.117408","CLASSIFICATION_TYPE":"U","PERIOD":"95.592","REF_FRAME":"TEME","SEMIMAJOR_AXIS":"6925.347","MEAN_MOTION":"15.06400586","OBJECT_TYPE":"PAYLOAD","NORAD_CAT_ID":"47916","RCS_SIZE":"LARGE","MEAN_ANOMALY":"279.2687","REV_AT_EPOCH":"12796","MEAN_MOTION_DDOT":"0.0000000000000","EPHEMERIS_TYPE":"0","MEAN_ELEMENT_THEORY":"SGP4","TLE_LINE2":"2 47916  53.0552 346.4516 0000675  80.8379 279.2687 15.06400586127962","OBJECT_ID":"2021-021BJ","RA_OF_ASC_NODE":"346.4516","LAUNCH_DATE":"2021-03-14","SITE":"AFETR","OBJECT_NAME":"STARLINK-2378","GP_ID":"234673679","ELEMENT_SET_NO":"999","TIME_SYSTEM":"UTC","PERIAPSIS":"546.744","DECAY_DATE":null,"TLE_LINE1":"1 47916U 21021BJ  23183.47704997 -.00000197  00000-0  56248-5 0  9995","COUNTRY_CODE":"US","APOAPSIS":"547.679","INCLINATION":"53.0552"},{"BSTAR":"-0.00007257900000","MEAN_MOTION_DOT":"-0.00001363","ARG_OF_PERICENTER":"83.1794","CENTER_NAME":"EARTH","ECCENTRICITY":"0.00021860","FILE":"3947786","PERIOD":"95.592","EPOCH":"2023-07-02T11:36:13.533408","CLASSIFICATION_TYPE":"U","NORAD_CAT_ID":"47917","OBJECT_TYPE":"PAYLOAD","REF_FRAME":"TEME","MEAN_MOTION":"15.06400765","SEMIMAJOR_AXIS":"6925.346","MEAN_ELEMENT_THEORY":"SGP4","EPHEMERIS_TYPE":"0","TLE_LINE2":"2 47917  53.0548 356.4248 0002186  83.1794 276.9443 15.06400765127825","RCS_SIZE":"LARGE","MEAN_ANOMALY":"276.9443","MEAN_MOTION_DDOT":"0.0000000000000","REV_AT_EPOCH":"12782","LAUNCH_DATE":"2021-03-14","OBJECT_NAME":"STARLINK-2397","SITE":"AFETR","OBJECT_ID":"2021-021BK","RA_OF_ASC_NODE":"356.4248","GP_ID":"234675577","ELEMENT_SET_NO":"999","TIME_SYSTEM":"UTC","DECAY_DATE":null,"PERIAPSIS":"545.697","TLE_LINE1":"1 47917U 21021BK  23183.48348997 -.00001363  00000-0 -72579-4 0  9992","APOAPSIS":"548.725","COUNTRY_CODE":"US","INCLINATION":"53.0548"},{"EPHEMERIS_TYPE":"0","MEAN_ELEMENT_THEORY":"SGP4","TLE_LINE2":"2 47918  53.0550 355.7959 0001042  87.9538 272.1571 15.06403745127841","MEAN_ANOMALY":"272.1571","RCS_SIZE":"LARGE","MEAN_MOTION_DDOT":"0.0000000000000","REV_AT_EPOCH":"12784","LAUNCH_DATE":"2021-03-14","OBJECT_NAME":"STARLINK-2398","SITE":"AFETR","RA_OF_ASC_NODE":"355.7959","OBJECT_ID":"2021-021BL","ELEMENT_SET_NO":"999","GP_ID":"234675913","TIME_SYSTEM":"UTC","DECAY_DATE":null,"PERIAPSIS":"546.480","TLE_LINE1":"1 47918U 21021BL  23183.62357214  .00003777  00000-0  27227-3 0  9999","INCLINATION":"53.0550","COUNTRY_CODE":"US","APOAPSIS":"547.924","BSTAR":"0.00027227000000","MEAN_MOTION_DOT":"0.00003777","ARG_OF_PERICENTER":"87.9538","CENTER_NAME":"EARTH","FILE":"3947796","ECCENTRICITY":"0.00010420","PERIOD":"95.592","CLASSIFICATION_TYPE":"U","EPOCH":"2023-07-02T14:57:56.632896","NORAD_CAT_ID":"47918","OBJECT_TYPE":"PAYLOAD","REF_FRAME":"TEME","MEAN_MOTION":"15.06403745","SEMIMAJOR_AXIS":"6925.337"},{"CENTER_NAME":"EARTH","ECCENTRICITY":"0.00015700","FILE":"3947796","BSTAR":"-0.00029715000000","ARG_OF_PERICENTER":"107.6295","MEAN_MOTION_DOT":"-0.00004705","NORAD_CAT_ID":"47919","OBJECT_TYPE":"PAYLOAD","MEAN_MOTION":"15.06398270","SEMIMAJOR_AXIS":"6925.354","REF_FRAME":"TEME","PERIOD":"95.592","CLASSIFICATION_TYPE":"U","EPOCH":"2023-07-02T12:59:50.157600","OBJECT_NAME":"STARLINK-2405","SITE":"AFETR","LAUNCH_DATE":"2021-03-14","RA_OF_ASC_NODE":"6.1638","OBJECT_ID":"2021-021BM","TLE_LINE2":"2 47919  53.0550   6.1638 0001570 107.6295 252.4865 15.06398270127673","EPHEMERIS_TYPE":"0","MEAN_ELEMENT_THEORY":"SGP4","MEAN_MOTION_DDOT":"0.0000000000000","REV_AT_EPOCH":"12767","RCS_SIZE":"LARGE","MEAN_ANOMALY":"252.4865","TLE_LINE1":"1 47919U 21021BM  23183.54155275 -.00004705  00000-0 -29715-3 0  9992","COUNTRY_CODE":"US","APOAPSIS":"548.306","INCLINATION":"53.0550","DECAY_DATE":null,"PERIAPSIS":"546.132","TIME_SYSTEM":"UTC","ELEMENT_SET_NO":"999","GP_ID":"234675907"},{"FILE":"3947863","ECCENTRICITY":"0.00008060","CENTER_NAME":"EARTH","ARG_OF_PERICENTER":"38.3072","MEAN_MOTION_DOT":"-0.00001998","BSTAR":"-0.00011534000000","SEMIMAJOR_AXIS":"6925.363","MEAN_MOTION":"15.06395249","REF_FRAME":"TEME","OBJECT_TYPE":"PAYLOAD","NORAD_CAT_ID":"47977","CLASSIFICATION_TYPE":"U","EPOCH":"2023-07-02T14:47:59.290944","PERIOD":"95.592","RA_OF_ASC_NODE":"50.8252","OBJECT_ID":"2021-024A","SITE":"AFETR","OBJECT_NAME":"STARLINK-2087","LAUNCH_DATE":"2021-03-24","REV_AT_EPOCH":"12631","MEAN_MOTION_DDOT":"0.0000000000000","RCS_SIZE":"LARGE","MEAN_ANOMALY":"321.7974","TLE_LINE2":"2 47977  53.0543  50.8252 0000806  38.3072 321.7974 15.06395249126315","EPHEMERIS_TYPE":"0","MEAN_ELEMENT_THEORY":"SGP4","TLE_LINE1":"1 47977U 21024A   23183.61665846 -.00001998  00000-0 -11534-3 0  9998","COUNTRY_CODE":"US","APOAPSIS":"547.786","INCLINATION":"53.0543","DECAY_DATE":null,"PERIAPSIS":"546.670","TIME_SYSTEM":"UTC","ELEMENT_SET_NO":"999","GP_ID":"234677943"},{"RA_OF_ASC_NODE":"61.9209","OBJECT_ID":"2021-024B","LAUNCH_DATE":"2021-03-24","SITE":"AFETR","OBJECT_NAME":"STARLINK-1647","RCS_SIZE":"LARGE","MEAN_ANOMALY":"271.1699","REV_AT_EPOCH":"12612","MEAN_MOTION_DDOT":"0.0000000000000","MEAN_ELEMENT_THEORY":"SGP4","EPHEMERIS_TYPE":"0","TLE_LINE2":"2 47978  53.0552  61.9209 0001337  88.9443 271.1699 15.06397977126125","PERIAPSIS":"546.294","DECAY_DATE":null,"TLE_LINE1":"1 47978U 21024B   23183.37247141  .00004156  00000-0  29776-3 0  9990","APOAPSIS":"548.146","COUNTRY_CODE":"US","INCLINATION":"53.0552","GP_ID":"234671335","ELEMENT_SET_NO":"999","TIME_SYSTEM":"UTC","ECCENTRICITY":"0.00013370","FILE":"3947634","CENTER_NAME":"EARTH","MEAN_MOTION_DOT":"0.00004156","ARG_OF_PERICENTER":"88.9443","BSTAR":"0.00029776000000","REF_FRAME":"TEME","SEMIMAJOR_AXIS":"6925.355","MEAN_MOTION":"15.06397977","OBJECT_TYPE":"PAYLOAD","NORAD_CAT_ID":"47978","EPOCH":"2023-07-02T08:56:21.529824","CLASSIFICATION_TYPE":"U","PERIOD":"95.592"},{"TLE_LINE2":"2 47979  53.0550 359.5924 0002140 107.2955 252.8268 15.06390527126953","EPHEMERIS_TYPE":"0","MEAN_ELEMENT_THEORY":"SGP4","REV_AT_EPOCH":"12695","MEAN_MOTION_DDOT":"0.0000000000000","MEAN_ANOMALY":"252.8268","RCS_SIZE":"LARGE","SITE":"AFETR","OBJECT_NAME":"STARLINK-2325","LAUNCH_DATE":"2021-03-24","RA_OF_ASC_NODE":"359.5924","OBJECT_ID":"2021-024C","TIME_SYSTEM":"UTC","GP_ID":"234658288","ELEMENT_SET_NO":"999","COUNTRY_CODE":"US","TLE_LINE1":"1 47979U 21024C   23182.77949948  .00008249  00000-0  57220-3 0  9990","APOAPSIS":"548.725","INCLINATION":"53.0550","DECAY_DATE":null,"PERIAPSIS":"545.761","BSTAR":"0.00057220000000","ARG_OF_PERICENTER":"107.2955","MEAN_MOTION_DOT":"0.00008249","CENTER_NAME":"EARTH","FILE":"3947082","ECCENTRICITY":"0.00021400","PERIOD":"95.593","EPOCH":"2023-07-01T18:42:28.755072","CLASSIFICATION_TYPE":"U","OBJECT_TYPE":"PAYLOAD","NORAD_CAT_ID":"47979","SEMIMAJOR_AXIS":"6925.378","MEAN_MOTION":"15.06390527","REF_FRAME":"TEME"},{"OBJECT_NAME":"STARLINK-2312","SITE":"AFETR","LAUNCH_DATE":"2021-03-24","RA_OF_ASC_NODE":"335.7458","OBJECT_ID":"2021-024D","TLE_LINE2":"2 47980  53.0550 335.7458 0001138  94.2059 265.9060 15.06405849127353","MEAN_ELEMENT_THEORY":"SGP4","EPHEMERIS_TYPE":"0","MEAN_MOTION_DDOT":"0.0000000000000","REV_AT_EPOCH":"12735","RCS_SIZE":"LARGE","MEAN_ANOMALY":"265.9060","TLE_LINE1":"1 47980U 21024D   23183.66229421  .00006808  00000-0  47539-3 0  9999","COUNTRY_CODE":"US","INCLINATION":"53.0550","APOAPSIS":"547.984","PERIAPSIS":"546.408","DECAY_DATE":null,"TIME_SYSTEM":"UTC","GP_ID":"234677456","ELEMENT_SET_NO":"999","CENTER_NAME":"EARTH","FILE":"3947880","ECCENTRICITY":"0.00011380","BSTAR":"0.00047539000000","ARG_OF_PERICENTER":"94.2059","MEAN_MOTION_DOT":"0.00006808","NORAD_CAT_ID":"47980","OBJECT_TYPE":"PAYLOAD","MEAN_MOTION":"15.06405849","SEMIMAJOR_AXIS":"6925.331","REF_FRAME":"TEME","PERIOD":"95.592","CLASSIFICATION_TYPE":"U","EPOCH":"2023-07-02T15:53:42.219744"},{"TIME_SYSTEM":"UTC","ELEMENT_SET_NO":"999","GP_ID":"234671844","COUNTRY_CODE":"US","TLE_LINE1":"1 47981U 21024E   23183.36140241  .00003292  00000-0  23968-3 0  9993","APOAPSIS":"548.422","INCLINATION":"53.0538","PERIAPSIS":"545.888","DECAY_DATE":null,"MEAN_MOTION_DDOT":"0.0000000000000","REV_AT_EPOCH":"12612","MEAN_ANOMALY":"274.8107","RCS_SIZE":"LARGE","TLE_LINE2":"2 47981  53.0538  61.9682 0001829  85.3090 274.8107 15.06419068126123","MEAN_ELEMENT_THEORY":"SGP4","EPHEMERIS_TYPE":"0","RA_OF_ASC_NODE":"61.9682","OBJECT_ID":"2021-024E","OBJECT_NAME":"STARLINK-2303","SITE":"AFETR","LAUNCH_DATE":"2021-03-24","EPOCH":"2023-07-02T08:40:25.168224","CLASSIFICATION_TYPE":"U","PERIOD":"95.591","MEAN_MOTION":"15.06419068","SEMIMAJOR_AXIS":"6925.290","REF_FRAME":"TEME","NORAD_CAT_ID":"47981","OBJECT_TYPE":"PAYLOAD","ARG_OF_PERICENTER":"85.3090","MEAN_MOTION_DOT":"0.00003292","BSTAR":"0.00023968000000","FILE":"3947635","ECCENTRICITY":"0.00018290","CENTER_NAME":"EARTH"},{"GP_ID":"234671352","ELEMENT_SET_NO":"999","TIME_SYSTEM":"UTC","PERIAPSIS":"545.808","DECAY_DATE":null,"TLE_LINE1":"1 47982U 21024F   23183.47475379  .00006362  00000-0  44548-3 0  9997","COUNTRY_CODE":"US","APOAPSIS":"548.547","INCLINATION":"53.0547","MEAN_ANOMALY":"270.7577","RCS_SIZE":"LARGE","REV_AT_EPOCH":"12711","MEAN_MOTION_DDOT":"0.0000000000000","MEAN_ELEMENT_THEORY":"SGP4","EPHEMERIS_TYPE":"0","TLE_LINE2":"2 47982  53.0547 351.4619 0001978  89.3639 270.7577 15.06411799127118","RA_OF_ASC_NODE":"351.4619","OBJECT_ID":"2021-024F","LAUNCH_DATE":"2021-03-24","SITE":"AFETR","OBJECT_NAME":"STARLINK-2317","CLASSIFICATION_TYPE":"U","EPOCH":"2023-07-02T11:23:38.727456","PERIOD":"95.591","REF_FRAME":"TEME","SEMIMAJOR_AXIS":"6925.312","MEAN_MOTION":"15.06411799","OBJECT_TYPE":"PAYLOAD","NORAD_CAT_ID":"47982","MEAN_MOTION_DOT":"0.00006362","ARG_OF_PERICENTER":"89.3639","BSTAR":"0.00044548000000","FILE":"3947635","ECCENTRICITY":"0.00019780","CENTER_NAME":"EARTH"}];
